STARLINK-1559           
1 46077U 20055BC  26068.23360559  .00042685  00000+0  14779-2 0  9995
2 46077  53.0254  76.0659 0004229  33.9710 326.1559 15.29461733309518
STARLINK-35569          
1 66471U 25262R   26068.00982325  .00029990  00000+0  10944-2 0  9990
2 66471  42.9935 299.9058 0000570 217.4530 142.6282 15.27594777 18800
